NORAD_CAT_ID,OBJECT_NAME,OBJECT_TYPE,EPOCH,MEAN_MOTION,ECCENTRICITY,INCLINATION,RA_OF_ASC_NODE,ARG_OF_PERICENTER,MEAN_ANOMALY,BSTAR,MEAN_MOTION_DOT,MEAN_MOTION_DDOT,TLE_LINE0,TLE_LINE1,TLE_LINE2,SEMIMAJOR_AXIS,PERIOD,APOGEE,PERIGEE,DECAYED
50819.0,STARLINK-3327,PAYLOAD,2024-02-01 04:17:47,15.0883388,0.0001833,53.2206,14.6088,114.3089,245.8095,4.9355e-06,-2.1e-06,0.0,0 STARLINK-3327,1 50819U 22001S   24032.17902393 -.00000210  00000-0  49355-5 0  9998,2 50819  53.2206  14.6088 0001833 114.3089 245.8095 15.08833880114543,6917.899,95.438,541.032,538.496,0.0
50819.0,STARLINK-3327,PAYLOAD,2024-02-01 21:47:02,15.0884738,0.000209,53.2204,11.3372,122.2428,237.8767,-0.00010415,-1.946e-05,0.0,0 STARLINK-3327,1 50819U 22001S   24032.90766219 -.00001946  00000-0 -10415-3 0  9995,2 50819  53.2204  11.3372 0002090 122.2428 237.8767 15.08847380114651,6917.858,95.437,541.169,538.277,0.0
50819.0,STARLINK-3327,PAYLOAD,2024-02-02 04:08:34,15.08843921,0.0001915,53.2209,10.1491,115.3643,244.7548,4.7353e-05,4.66e-06,0.0,0 STARLINK-3327,1 50819U 22001S   24033.17261876  .00000466  00000-0  47353-4 0  9990,2 50819  53.2209  10.1491 0001915 115.3643 244.7548 15.08843921115890,6917.868,95.437,541.058,538.409,0.0
50819.0,STARLINK-3327,PAYLOAD,2024-02-02 08:54:43,15.08855185,0.0001894,53.22,9.2566,114.1577,245.9613,-4.8432e-05,-1.059e-05,0.0,0 STARLINK-3327,1 50819U 22001S   24033.37133329 -.00001059  00000-0 -48432-4 0  9993,2 50819  53.2200   9.2566 0001894 114.1577 245.9613 15.08855185115927,6917.834,95.437,541.009,538.389,0.0
50819.0,STARLINK-3327,PAYLOAD,2024-02-02 21:37:49,15.08840197,0.0001625,53.2192,6.8746,125.0571,235.0574,-4.5806e-05,-1.017e-05,0.0,0 STARLINK-3327,1 50819U 22001S   24033.90126454 -.00001017  00000-0 -45806-4 0  9999,2 50819  53.2192   6.8746 0001625 125.0571 235.0574 15.08840197114806,6917.88,95.438,540.869,538.621,0.0
50819.0,STARLINK-3327,PAYLOAD,2024-02-03 03:59:21,15.08837748,0.0001664,53.2195,5.6884,107.3103,252.8071,9.0046e-05,1.145e-05,0.0,0 STARLINK-3327,1 50819U 22001S   24034.16622256  .00001145  00000-0  90046-4 0  9995,2 50819  53.2195   5.6884 0001664 107.3103 252.8071 15.08837748116041,6917.887,95.438,540.903,538.601,0.0
50819.0,STARLINK-3327,PAYLOAD,2024-02-03 07:10:07,15.08840397,0.0001415,53.2184,5.0929,97.876,262.2393,0.00010869,1.442e-05,0.0,0 STARLINK-3327,1 50819U 22001S   24034.29870133  .00001442  00000-0  10869-3 0  9992,2 50819  53.2184   5.0929 0001415  97.8760 262.2393 15.08840397114863,6917.879,95.438,540.723,538.765,0.0
50819.0,STARLINK-3327,PAYLOAD,2024-02-04 07:00:54,15.08850547,0.000151,53.2189,0.6334,87.6328,272.4837,9.0735e-05,1.157e-05,0.0,0 STARLINK-3327,1 50819U 22001S   24035.29229709  .00001157  00000-0  90735-4 0  9994,2 50819  53.2189   0.6334 0001510  87.6328 272.4837 15.08850547116217,6917.848,95.437,540.758,538.669,0.0
50819.0,STARLINK-3327,PAYLOAD,2024-02-05 03:40:55,15.08845174,0.0001662,53.2194,356.7648,117.2881,242.828,2.1858e-05,6e-07,0.0,0 STARLINK-3327,1 50819U 22001S   24036.15341877  .00000060  00000-0  21858-4 0  9993,2 50819  53.2194 356.7648 0001662 117.2881 242.8280 15.08845174116345,6917.865,95.437,540.879,538.58,0.0
50819.0,STARLINK-3327,PAYLOAD,2024-02-05 14:48:37,15.0884507,0.0001687,53.2205,354.6826,108.9534,251.1641,9.0316e-06,-1.44e-06,0.0,0 STARLINK-3327,1 50819U 22001S   24036.61709878 -.00000144  00000-0  90316-5 0  9993,2 50819  53.2205 354.6826 0001687 108.9534 251.1641 15.08845070115216,6917.865,95.437,540.897,538.563,0.0
50819.0,STARLINK-3327,PAYLOAD,2024-02-06 06:42:28,15.08849362,0.0001719,53.2191,351.7112,104.7293,255.389,3.2577e-05,2.31e-06,0.0,0 STARLINK-3327,1 50819U 22001S   24037.27949612  .00000231  00000-0  32577-4 0  9998,2 50819  53.2191 351.7112 0001719 104.7293 255.3890 15.08849362116512,6917.852,95.437,540.906,538.528,0.0
50819.0,STARLINK-3327,PAYLOAD,2024-02-07 03:22:29,15.08848578,0.000161,53.2194,347.848,93.407,266.7106,-4.9915e-06,-3.68e-06,0.0,0 STARLINK-3327,1 50819U 22001S   24038.14061892 -.00000368  00000-0 -49915-5 0  9998,2 50819  53.2194 347.8480 0001610  93.4070 266.7106 15.08848578116644,6917.854,95.437,540.833,538.605,0.0
50819.0,STARLINK-3327,PAYLOAD,2024-02-08 01:37:54,15.08832848,0.0001779,53.2191,343.6843,110.9094,249.2089,1.436e-05,-6e-07,0.0,0 STARLINK-3327,1 50819U 22001S   24039.06798835 -.00000060  00000-0  14360-4 0  9997,2 50819  53.2191 343.6843 0001779 110.9094 249.2089 15.08832848116789,6917.902,95.438,540.998,538.537,0.0
50819.0,STARLINK-3327,PAYLOAD,2024-02-08 06:24:03,15.08839399,0.0001412,53.2189,342.7897,92.8928,267.2226,-1.0829e-05,-4.6e-06,0.0,0 STARLINK-3327,1 50819U 22001S   24039.26670738 -.00000460  00000-0 -10829-4 0  9991,2 50819  53.2189 342.7897 0001412  92.8928 267.2226 15.08839399115615,6917.882,95.438,540.724,538.77,0.0
50819.0,STARLINK-3327,PAYLOAD,2024-02-09 01:28:41,15.08844664,0.0001366,53.2183,339.2217,88.5245,271.5904,1.6496e-05,-2.5e-07,0.0,0 STARLINK-3327,1 50819U 22001S   24040.06158646 -.00000025  00000-0  16496-4 0  9992,2 50819  53.2183 339.2217 0001366  88.5245 271.5904 15.08844664116936,6917.866,95.437,540.676,538.786,0.0
50819.0,STARLINK-3327,PAYLOAD,2024-02-09 18:57:55,15.08838383,0.0001361,53.2178,335.9517,87.5206,272.5942,9.5421e-05,1.231e-05,0.0,0 STARLINK-3327,1 50819U 22001S   24040.79023094  .00001231  00000-0  95421-4 0  9994,2 50819  53.2178 335.9517 0001361  87.5206 272.5942 15.08838383117044,6917.885,95.438,540.692,538.809,0.0
50819.0,STARLINK-3327,PAYLOAD,2024-02-10 14:02:33,15.0884157,0.0001486,53.2175,332.3875,83.3062,276.8099,1.4834e-05,-5.2e-07,0.0,0 STARLINK-3327,1 50819U 22001S   24041.58511306 -.00000052  00000-0  14834-4 0  9990,2 50819  53.2175 332.3875 0001486  83.3062 276.8099 15.08841570115962,6917.876,95.437,540.769,538.713,0.0
50819.0,STARLINK-3327,PAYLOAD,2024-02-10 18:48:43,15.08838168,0.0001424,53.2166,331.4929,89.8861,270.2295,9.4715e-05,1.22e-05,0.0,0 STARLINK-3327,1 50819U 22001S   24041.78383473  .00001220  00000-0  94715-4 0  9997,2 50819  53.2166 331.4929 0001424  89.8861 270.2295 15.08838168115990,6917.886,95.438,540.736,538.766,0.0
50819.0,STARLINK-3327,PAYLOAD,2024-02-11 02:45:38,15.08853474,0.0001371,53.218,330.0083,88.8928,271.2222,5.5597e-05,5.97e-06,0.0,0 STARLINK-3327,1 50819U 22001S   24042.11502481  .00000597  00000-0  55597-4 0  9998,2 50819  53.2180 330.0083 0001371  88.8928 271.2222 15.08853474117244,6917.839,95.437,540.653,538.756,0.0
50819.0,STARLINK-3327,PAYLOAD,2024-02-12 02:36:24,15.08851908,0.0001348,53.2187,325.542,102.3881,257.7262,0.0001294,1.773e-05,0.0,0 STARLINK-3327,1 50819U 22001S   24043.10862235  .00001773  00000-0  12940-3 0  9995,2 50819  53.2187 325.5420 0001348 102.3881 257.7262 15.08851908117398,6917.844,95.437,540.642,538.776,0.0
50819.0,STARLINK-3327,PAYLOAD,2024-02-12 04:11:48,15.08853764,0.0001363,53.2175,325.2437,107.3437,252.7705,0.00021937,3.206e-05,0.0,0 STARLINK-3327,1 50819U 22001S   24043.17486303  .00003206  00000-0  21937-3 0  9999,2 50819  53.2175 325.2437 0001363 107.3437 252.7705 15.08853764116207,6917.838,95.437,540.646,538.76,0.0
50819.0,STARLINK-3327,PAYLOAD,2024-02-12 18:30:16,15.08845669,0.0001775,53.2164,322.5716,118.5722,241.5449,0.00012339,1.677e-05,0.0,0 STARLINK-3327,1 50819U 22001S   24043.77102568  .00001677  00000-0  12339-3 0  9999,2 50819  53.2164 322.5716 0001775 118.5722 241.5449 15.08845669117491,6917.863,95.437,540.956,538.5,0.0
50819.0,STARLINK-3327,PAYLOAD,2024-02-13 11:59:31,15.08847402,0.0001734,53.2178,319.3077,60.7015,299.415,6.1411e-05,6.9e-06,0.0,0 STARLINK-3327,1 50819U 22001S   24044.49966649  .00000690  00000-0  61411-4 0  9997,2 50819  53.2178 319.3077 0001734  60.7015 299.4150 15.08847402116406,6917.858,95.437,540.922,538.523,0.0
50819.0,STARLINK-3327,PAYLOAD,2024-02-13 18:21:03,15.08840585,0.0001801,53.2176,318.1107,114.6432,245.4748,-6.8281e-05,-1.375e-05,0.0,0 STARLINK-3327,1 50819U 22001S   24044.76462944 -.00001375  00000-0 -68281-4 0  9991,2 50819  53.2176 318.1107 0001801 114.6432 245.4748 15.08840585117648,6917.879,95.438,540.99,538.498,0.0
50819.0,STARLINK-3327,PAYLOAD,2024-02-13 21:31:50,15.08841234,0.0001733,53.2169,317.5133,118.0079,242.1088,-4.6345e-05,-1.026e-05,0.0,0 STARLINK-3327,1 50819U 22001S   24044.89710884 -.00001026  00000-0 -46345-4 0  9994,2 50819  53.2169 317.5133 0001733 118.0079 242.1088 15.08841234116463,6917.877,95.437,540.94,538.543,0.0
50819.0,STARLINK-3327,PAYLOAD,2024-02-14 03:53:22,15.08843265,0.0001832,53.2176,316.3238,127.827,232.2888,1.8939e-05,1.3e-07,0.0,0 STARLINK-3327,1 50819U 22001S   24045.16206743  .00000013  00000-0  18939-4 0  9990,2 50819  53.2176 316.3238 0001832 127.8270 232.2888 15.08843265116504,6917.87,95.437,541.003,538.468,0.0
50819.0,STARLINK-3327,PAYLOAD,2024-02-14 21:22:37,15.08838443,0.0001744,53.2177,313.0525,129.6729,230.4417,-5.8049e-05,-1.212e-05,0.0,0 STARLINK-3327,1 50819U 22001S   24045.89071180 -.00001212  00000-0 -58049-4 0  9995,2 50819  53.2177 313.0525 0001744 129.6729 230.4417 15.08838443116611,6917.885,95.438,540.957,538.544,0.0
50819.0,STARLINK-3327,PAYLOAD,2024-02-15 03:44:10,15.08840665,0.0001527,53.218,311.8623,121.8482,238.2659,3.568e-06,-2.31e-06,0.0,0 STARLINK-3327,1 50819U 22001S   24046.15567153 -.00000231  00000-0  35680-5 0  9991,2 50819  53.2180 311.8623 0001527 121.8482 238.2659 15.08840665117859,6917.878,95.438,540.8,538.687,0.0
50819.0,STARLINK-3327,PAYLOAD,2024-02-15 18:02:38,15.08829748,0.0001668,53.2181,309.1864,108.5641,251.5532,8.1399e-05,1.007e-05,0.0,0 STARLINK-3327,1 50819U 22001S   24046.75184024  .00001007  00000-0  81399-4 0  9997,2 50819  53.2181 309.1864 0001668 108.5641 251.5532 15.08829748117949,6917.912,95.438,540.931,538.623,0.0
50819.0,STARLINK-3327,PAYLOAD,2024-02-15 22:48:48,15.08833512,0.0001667,53.2173,308.2937,108.2277,251.8896,5.1775e-05,5.36e-06,0.0,0 STARLINK-3327,1 50819U 22001S   24046.95056031  .00000536  00000-0  51775-4 0  9996,2 50819  53.2173 308.2937 0001667 108.2277 251.8896 15.08833512116772,6917.9,95.438,540.918,538.612,0.0
